ONEWEB-0504             
1 54122U 22138K   25072.38962876  .00000119  00000+0  26435-3 0  9998
2 54122  87.9205  36.5423 0002239  88.4759 271.6631 13.19725197116051
ONEWEB-0505             
1 54123U 22138L   25072.61392233  .00000106  00000+0  23179-3 0  9997
2 54123  87.9203  36.4888 0002560  85.5507 274.5918 13.19724909116061
ONEWEB-0506             
1 54124U 22138M   25072.43701287 -.00000017  00000+0 -73553-4 0  9996
2 54124  87.9203  36.5211 0002142  83.2144 276.9233 13.19724894116037
ONEWEB-0507             
1 54125U 22138N   25072.60917185  .00000150  00000+0  34182-3 0  9992
2 54125  87.9212  36.5307 0002148  80.1998 279.9377 13.19726795116105
ONEWEB-0508             
1 54126U 22138P   25072.60602298  .00000114  00000+0  25151-3 0  9995
2 54126  87.9211  36.5172 0002353  77.7226 282.4170 13.19724984116084
ONEWEB-0509             
1 54127U 22138Q   25072.42911105  .00000012  00000+0 -11561-5 0  9996
2 54127  87.9202  36.5212 0002058  82.6374 277.4992 13.19725793116031
ONEWEB-0510             
1 54128U 22138R   25072.30293934  .00000064  00000+0  12585-3 0  9998
2 54128  87.9334   6.1558 0001710  73.7141 286.4181 13.20772679118445
ONEWEB-0511             
1 54129U 22138S   25072.42595077  .00000072  00000+0  14866-3 0  9998
2 54129  87.9203  36.5268 0001996  93.0232 267.1129 13.19726223116064
